00431    8.72  0.15 K07AR  26.73864  213.38296  117.29203    1.82730  0.1725219  0.17750404   3.1356715  0 MPC 31133   195  51 1897-1996 0.55 M-v 38h Goffin     0000    (431) Nephele            19961106
00432    8.84  0.15 K07AR 218.99590  174.23571   88.87121   12.13212  0.1463137  0.27027178   2.3692029  0 MPC 33062   203  42 1897-1998 0.56 M-v 38h Goffin     0000    (432) Pythia             19980406
00433   11.16  0.46 K07AR 215.95389  178.68129  304.37723   10.83080  0.2229084  0.55979417   1.4580882    MPC 24086  2402  42 1893-1993 0.72 M-N 0E  Williams   0004    (433) Eros               19930000
00434   11.21  0.15 K07AR 137.63137  123.88813  175.38988   22.50369  0.0736076  0.36351114   1.9444237  0 MPO  2602   259  34 1898-2000 0.54 M-v 38h Goffin     0000    (434) Hungaria           20000612
00435   10.23  0.15 K07AR 163.41217  333.23044   23.28568    1.81707  0.1550566  0.25715393   2.4491043  0 MPC 35055   237  45 1898-1999 0.55 M-v 38h Goffin     0000    (435) Ella               19990206
00436    9.8   0.15 K07AR 354.86759   38.48490  351.48365   18.47689  0.0622832  0.17189027   3.2035772  0 MPO 87238   613  30 1898-2005 0.79 M-v 38h Goffin     0000    (436) Patricia           20050502
00437   10.41  0.15 K07AR 220.23474   61.48136  263.39125    7.35842  0.2479120  0.26750974   2.3854829  1 MPC 25187    94  26 1898-1991 1.08 M-c 08  Goffin     0000    (437) Rhodia             19910000
00438    9.80  0.15 K07AR  32.40754  209.65523   49.27356    7.38286  0.0698428  0.24150993   2.5537559  0 MPO120681   670  41 1898-2007 0.62 M-v 38h MPC        0000    (438) Zeuxo              20070514
00439    9.83  0.15 K07AR 190.24295  238.03842  201.76122   19.14348  0.0611252  0.17736718   3.1372844  0 MPO 87238   575  32 1898-2005 0.83 M-v 38h Goffin     0000    (439) Ohio               20050412
00440   11.5   0.15 K07AR 345.27413  178.62896  292.26850    1.59869  0.1080648  0.29991694   2.2103891  0 MPC 37254   137  29 1898-1999 0.55 M-v 38h Goffin     0000    (440) Theodora           19990716
00441    8.51  0.15 K07AR  37.76009  201.22049  253.86066    8.14202  0.0826209  0.20973354   2.8055895  0 MPO 53552   542  54 1898-2003 0.56 M-v 38h Goffin     0000    (441) Bathilde           20030602
00442   10.03  0.15 K07AR  27.80245   85.09477  135.02214    6.06263  0.0717916  0.27435499   2.3456370  0 MPO 87238   635  45 1892-2004 0.84 M-v 38h Goffin     0000    (442) Eichsfeldia        20040817
00443   10.28  0.15 K07AR 333.17804  348.82133  175.54661    4.23041  0.0398431  0.29887430   2.2155268  0 MPO 53552   452  42 1899-2003 0.55 M-v 38h Goffin     0000    (443) Photographica      20030905
00444    7.83  0.22 K07AR  47.71080  155.25754  195.83519   10.27775  0.1730891  0.21356635   2.7719209    MPC 22573   509  60 1899-1992 1.07 M-c 08  Goffin     0000    (444) Gyptis             19920000
00445    9.29  0.15 K07AR   0.77329   79.90267  292.41332   21.37338  0.1911506  0.17220891   3.1996242  0 MPO 14996   185  27 1899-2001 0.83 M-v 38h Williams   0000    (445) Edna               20010720
00446    8.90  0.15 K07AR 124.86260  280.32133   42.15018   10.62330  0.1242327  0.21161056   2.7889741  0 MPO 87238   578  41 1899-2005 0.83 M-v 38h Goffin     0000    (446) Aeternitas         20050225
00447    8.99  0.15 K07AR 328.65007  321.27024   72.00749    4.80119  0.0391363  0.19105575   2.9855841  0 MPO  4876   467  62 1894-2000 0.54 M-v 38h Goffin     0000    (447) Valentine          20000624
00448   10.30  0.15 K07AR 178.73610  295.23777   37.35869   12.71505  0.1847939  0.17738257   3.1371029  0 MPO 77281   517  36 1899-2004 0.54 M-v 38h Goffin     0000    (448) Natalie            20041114
00449    9.47  0.15 K07AR  79.28795   46.46215   86.03702    3.08985  0.1707923  0.24162704   2.5529307  0 MPC 32506   174  40 1899-1998 0.55 M-v 38h Goffin     0000    (449) Hamburga           19980127
00450   10.28  0.15 K07AR 244.69937  355.24446   14.70129   10.15552  0.1024222  0.18806520   3.0171513  0 MPC 30777    96  21 1899-1996 0.56 M-v 38h Goffin     0000    (450) Brigitta           19960317
00451    6.65  0.19 K07AR  46.88176  340.35149   89.39445   15.22186  0.0772119  0.18404482   3.0609317  0 MPO 41498  1284  76 1899-2002 0.56 M-v 38h Goffin     0000    (451) Patientia          20020309
00452   11.2   0.15 K07AR  74.66812   68.12192   92.61214    3.22721  0.0099218  0.20507450   2.8479232  0 MPO 47586   443  18 1899-2002 0.66 M-v 38h MPC        0000    (452) Hamiltonia         20020611
00453   10.6   0.15 K07AR  61.45608  219.99867   11.79990    5.55653  0.1091506  0.30554898   2.1831428  0 MPO 87238   726  31 1900-2004 0.79 M-v 38h Goffin     0000    (453) Tea                20041221
00454    9.20  0.15 K07AR  76.80608  178.05113   32.44393    6.29694  0.1118725  0.23141646   2.6274828  0 MPC 31133   254  42 1900-1997 0.56 M-v 38h Goffin     0000    (454) Mathesis           19970212
00455    8.86  0.15 K07AR 212.52460  272.28918   76.61103   12.02383  0.2945178  0.22790286   2.6544194  0 MPO 77281   663  47 1900-2004 0.54 M-v 38h Goffin     0000    (455) Bruchsalia         20040821
00456    9.2   0.15 K07AR  43.01828    7.25260  229.35850   14.44656  0.1816578  0.21186426   2.7867473  0 MPO 87238   727  42 1900-2005 0.82 M-v 38h Goffin     0000    (456) Abnoba             20050209
00457   11.0   0.15 K07AR 245.25589  127.99622  249.85714   12.94644  0.1783185  0.18109325   3.0941014  0 MPO 87238   524  15 1900-2005 0.81 M-v 38h Goffin     0000    (457) Alleghenia         20050406
00458    9.63  0.15 K07AR 216.91633  275.15412  134.73171   12.63079  0.2398840  0.18963569   3.0004703  0 MPO 77281   569  37 1900-2005 0.54 M-v 38h Goffin     0000    (458) Hercynia           20050303
00459   10.44  0.15 K07AR  67.09700   19.21278   29.57292   10.29616  0.2095576  0.23234124   2.6205062  0 MPO 87238   467  30 1900-2004 0.79 M-v 38h Goffin     0000    (459) Signe              20040719
00460   10.6   0.15 K07AR 333.93945  162.09704  205.39317    4.63639  0.1031256  0.22002376   2.7174173  0 MPO 87238   658  42 1900-2005 0.82 M-v 38h Goffin     0000    (460) Scania             20050512
00461   10.48  0.15 K07AR 117.35162  301.30641  157.47290    1.44300  0.1480903  0.17899944   3.1181830  0 MPO 87238   717  36 1900-2005 0.78 M-v 38h Goffin     0000    (461) Saskia             20050118
00462    9.23  0.15 K07AR  14.50053  250.56219  105.32915    3.19122  0.0831899  0.20230017   2.8739016  0 MPO 41498   364  51 1897-2002 0.56 M-v 38h Goffin     0000    (462) Eriphyla           20021117
00463   11.82  0.15 K07AR 306.04935  329.25013   36.58532   13.54608  0.2201798  0.26528076   2.3988267  0 MPO 87238   535  19 1900-2005 0.81 M-v 38h Goffin     0000    (463) Lola               20050402
00464    9.52  0.15 K07AR   6.72360  258.51336  102.43627   10.16257  0.2019410  0.20993612   2.8037843  0 MPO 87238   460  30 1901-2005 0.85 M-v 38h Goffin     0000    (464) Megaira            20050412
00465    9.7   0.15 K07AR 147.01316  284.46036  300.70448    4.65736  0.2108833  0.18158323   3.0885328  0 MPC 31133   160  29 1901-1996 0.55 M-v 38h Goffin     0000    (465) Alekto             19961125
00466    8.30  0.15 K07AR  49.65444  246.31594  291.18375   19.16423  0.0828274  0.15999674   3.3604335  0 MPC 36496   112  30 1901-1999 0.55 M-v 38h Goffin     0000    (466) Tisiphone          19990206
00467   10.5   0.15 K07AR  99.64925   92.44655  322.61986    6.45108  0.1123892  0.19534181   2.9417510  0 MPO 41498   400  26 1901-2002 0.55 M-v 38h Goffin     0000    (467) Laura              20020507
00468    9.83  0.15 K07AR 178.19772  334.40324   21.36571    0.44001  0.1981706  0.17793204   3.1306411  0 MPC 31133   210  36 1901-1997 0.54 M-v 38h Goffin     0000    (468) Lina               19970503
00469    8.62  0.15 K07AR 319.15642  206.11982  334.34723   11.70172  0.1679326  0.17482924   3.1675732  0 MPO 87238   577  41 1901-2004 0.88 M-v 38h Goffin     0000    (469) Argentina          20041202
00470   10.07  0.15 K07AR 194.53577   46.35143  173.30154    7.22643  0.0930526  0.26419551   2.4053914  0 MPO 50329   394  41 1901-2002 0.56 M-v 38h Goffin     0000    (470) Kilia              20021004
00471    6.73  0.37 K07AR 123.42802  314.39525   84.09313   14.98535  0.2335888  0.20112438   2.8850914  0 MPC 31001   899  60 1901-1997 0.52 M-v 38h Goffin     0000    (471) Papagena           19970327
00472    8.92  0.15 K07AR 315.82687  296.40423  127.26530   15.80141  0.0941096  0.24293855   2.5437343  0 MPO 87238   557  51 1901-2005 0.90 M-v 38h Goffin     0000    (472) Roma               20050510
00473   12.3   0.15 K07AR 222.35135  153.35590  332.33720   12.91452  0.1066305  0.22694434   2.6618882  0 MPO 87238   481  14 1901-2005 0.72 M-v 38h Goffin     0000    (473) Nolli              20050512
00474   10.6   0.15 K07AR 115.56921  156.04821  161.86822    8.79797  0.2113900  0.25651238   2.4531861  0 MPO101858   640  30 1901-2006 0.69 M-v 38h MPC        0000    (474) Prudentia          20060624
00475   11.88  0.15 K07AR 138.02170  305.52128   34.59647   18.91595  0.3822727  0.23621533   2.5917752  1 MPO  2602   138  17 1918-2000 0.83 M-v 38h Williams   0007    (475) Ocllo              20000531
00476    8.55  0.15 K07AR 264.43556    1.92835  286.51243   10.94483  0.0743480  0.22859860   2.6490308  0 MPO 13522   255  46 1901-2000 0.54 M-v 38h Goffin     0000    (476) Hedwig             20001223
00477   10.25  0.15 K07AR 104.06874  322.32849   10.73143    5.28784  0.1884185  0.26251472   2.4156477  0 MPO 35428   329  38 1901-2002 0.55 M-v 38h Goffin     0000    (477) Italia             20020328
00478    7.98  0.15 K07AR 352.72138  241.29970  234.02043   13.17468  0.0881141  0.18823148   3.0153741  0 MPO 50329   560  52 1901-2003 0.56 M-v 38h Goffin     0000    (478) Tergeste           20030516
00479    9.6   0.15 K07AR 219.68301  269.36817  136.16679    8.66535  0.2178739  0.21925749   2.7237449  0 MPO 57621   488  40 1901-2003 0.55 M-v 38h Goffin     0000    (479) Caprera            20030828
